NORAD_CAT_ID,OBJECT_NAME,OBJECT_TYPE,EPOCH,MEAN_MOTION,ECCENTRICITY,INCLINATION,RA_OF_ASC_NODE,ARG_OF_PERICENTER,MEAN_ANOMALY,BSTAR,MEAN_MOTION_DOT,MEAN_MOTION_DDOT,TLE_LINE0,TLE_LINE1,TLE_LINE2,SEMIMAJOR_AXIS,PERIOD,APOGEE,PERIGEE,DECAYED
53421.0,STARLINK-4545,PAYLOAD,2023-05-13 02:57:54,15.08850316,0.0001147,53.2163,64.9991,98.5807,261.5315,0.00026609,3.951e-05,0.0,0 STARLINK-4545,1 53421U 22097AK  23133.12355007  .00003951  00000-0  26609-3 0  9994,2 53421  53.2163  64.9991 0001147  98.5807 261.5315 15.08850316 42898,6917.849,95.437,540.507,538.92,0.0
53421.0,STARLINK-4545,PAYLOAD,2023-05-14 04:24:05,15.08840965,0.0001251,53.2163,60.24,89.0728,271.0407,0.00020616,2.995e-05,0.0,0 STARLINK-4545,1 53421U 22097AK  23134.18339857  .00002995  00000-0  20616-3 0  9995,2 53421  53.2163  60.2400 0001251  89.0728 271.0407 15.08840965 42599,6917.877,95.437,540.608,538.877,0.0
53421.0,STARLINK-4545,PAYLOAD,2023-05-14 18:42:33,15.08843036,0.00013,53.2164,57.5629,87.9687,272.1454,0.00021234,3.093e-05,0.0,0 STARLINK-4545,1 53421U 22097AK  23134.77955894  .00003093  00000-0  21234-3 0  9992,2 53421  53.2164  57.5629 0001300  87.9687 272.1454 15.08843036 43146,6917.871,95.437,540.635,538.837,0.0
53421.0,STARLINK-4545,PAYLOAD,2023-05-15 12:11:48,15.08851707,0.0001359,53.2161,54.2931,82.0952,278.0195,0.00034781,5.254e-05,0.0,0 STARLINK-4545,1 53421U 22097AK  23135.50819477  .00005254  00000-0  34781-3 0  9992,2 53421  53.2161  54.2931 0001359  82.0952 278.0195 15.08851707 42799,6917.845,95.437,540.65,538.769,0.0
53421.0,STARLINK-4545,PAYLOAD,2023-05-16 00:54:53,15.08843765,0.0001477,53.2174,51.9147,87.0961,273.02,9.4238e-05,1.212e-05,0.0,0 STARLINK-4545,1 53421U 22097AK  23136.03811626  .00001212  00000-0  94238-4 0  9993,2 53421  53.2174  51.9147 0001477  87.0961 273.0200 15.08843765 42878,6917.869,95.437,540.756,538.712,0.0
53421.0,STARLINK-4545,PAYLOAD,2023-05-16 21:34:53,15.08844925,0.0001566,53.2176,48.048,92.7537,267.3634,6.7584e-05,7.88e-06,0.0,0 STARLINK-4545,1 53421U 22097AK  23136.89923414  .00000788  00000-0  67584-4 0  9997,2 53421  53.2176  48.0480 0001566  92.7537 267.3634 15.08844925 43460,6917.865,95.437,540.814,538.647,0.0
53421.0,STARLINK-4545,PAYLOAD,2023-05-17 03:56:26,15.08850493,0.000133,53.2177,46.8585,85.0219,275.0925,9.3764e-05,1.205e-05,0.0,0 STARLINK-4545,1 53421U 22097AK  23137.16419010  .00001205  00000-0  93764-4 0  9994,2 53421  53.2177  46.8585 0001330  85.0219 275.0925 15.08850493 43044,6917.848,95.437,540.633,538.793,0.0
53421.0,STARLINK-4545,PAYLOAD,2023-05-17 21:25:41,15.08834767,0.000131,53.2172,43.584,90.982,269.1322,-1.7734e-06,-3.16e-06,0.0,0 STARLINK-4545,1 53421U 22097AK  23137.89283827 -.00000316  00000-0 -17734-5 0  9997,2 53421  53.2172  43.5840 0001310  90.9820 269.1322 15.08834767 43612,6917.896,95.438,540.668,538.855,0.0
53421.0,STARLINK-4545,PAYLOAD,2023-05-18 00:36:27,15.08842554,0.0001163,53.2171,42.9889,77.2471,282.8651,5.2754e-05,5.52e-06,0.0,0 STARLINK-4545,1 53421U 22097AK  23138.02531516  .00000552  00000-0  52754-4 0  9994,2 53421  53.2171  42.9889 0001163  77.2471 282.8651 15.08842554 43174,6917.873,95.437,540.542,538.933,0.0
53421.0,STARLINK-4545,PAYLOAD,2023-05-18 16:30:19,15.08838093,0.0001215,53.2178,40.0213,91.4625,268.6507,3.64e-05,2.91e-06,0.0,0 STARLINK-4545,1 53421U 22097AK  23138.68772038  .00000291  00000-0  36400-4 0  9992,2 53421  53.2178  40.0213 0001215  91.4625 268.6507 15.08838093 43274,6917.886,95.438,540.592,538.911,0.0
53421.0,STARLINK-4545,PAYLOAD,2023-05-19 21:07:15,15.08839171,0.0001131,53.2181,34.6702,84.4602,275.6519,9.8022e-05,1.273e-05,0.0,0 STARLINK-4545,1 53421U 22097AK  23139.88004211  .00001273  00000-0  98022-4 0  9995,2 53421  53.2181  34.6702 0001131  84.4602 275.6519 15.08839171 43914,6917.883,95.438,540.53,538.966,0.0
53421.0,STARLINK-4545,PAYLOAD,2023-05-20 03:28:47,15.08850722,0.0001173,53.2175,33.4762,95.6656,264.447,0.0001518,2.13e-05,0.0,0 STARLINK-4545,1 53421U 22097AK  23140.14499313  .00002130  00000-0  15180-3 0  9993,2 53421  53.2175  33.4762 0001173  95.6656 264.4470 15.08850722 43499,6917.848,95.437,540.524,538.901,0.0
53421.0,STARLINK-4545,PAYLOAD,2023-05-21 00:08:47,15.08858255,0.0001647,53.2178,29.6108,73.7241,286.3932,0.00029188,4.363e-05,0.0,0 STARLINK-4545,1 53421U 22097AK  23141.00610746  .00004363  00000-0  29188-3 0  9997,2 53421  53.2178  29.6108 0001647  73.7241 286.3932 15.08858255 44087,6917.825,95.436,540.829,538.55,0.0
53421.0,STARLINK-4545,PAYLOAD,2023-05-21 16:02:40,15.08828873,0.000135,53.2174,26.6371,113.2126,246.9009,-0.00023851,-4.081e-05,0.0,0 STARLINK-4545,1 53421U 22097AK  23141.66852301 -.00004081  00000-0 -23851-3 0  9994,2 53421  53.2174  26.6371 0001350 113.2126 246.9009 15.08828873 43725,6917.914,95.438,540.713,538.845,0.0
53421.0,STARLINK-4545,PAYLOAD,2023-05-21 22:24:13,15.088246,0.0001351,53.2174,25.4474,101.7054,258.409,-0.00024668,-4.21e-05,0.0,0 STARLINK-4545,1 53421U 22097AK  23141.93348864 -.00004210  00000-0 -24668-3 0  9999,2 53421  53.2174  25.4474 0001351 101.7054 258.4090 15.08824600 44227,6917.927,95.439,540.727,538.858,0.0
53421.0,STARLINK-4545,PAYLOAD,2023-05-22 01:34:59,15.08821115,0.0001358,53.2177,24.8529,105.181,254.9332,-0.00027022,-4.584e-05,0.0,0 STARLINK-4545,1 53421U 22097AK  23142.06597195 -.00004584  00000-0 -27022-3 0  9998,2 53421  53.2177  24.8529 0001358 105.1810 254.9332 15.08821115 43787,6917.938,95.439,540.743,538.864,0.0
53421.0,STARLINK-4545,PAYLOAD,2023-05-22 09:31:55,15.08830783,0.000139,53.2188,23.3667,102.2145,257.9002,-6.9824e-05,-1.399e-05,0.0,0 STARLINK-4545,1 53421U 22097AK  23142.39717103 -.00001399  00000-0 -69824-4 0  9995,2 53421  53.2188  23.3667 0001390 102.2145 257.9002 15.08830783 43835,6917.909,95.438,540.735,538.812,0.0
53421.0,STARLINK-4545,PAYLOAD,2023-05-22 12:42:41,15.08833663,0.0001405,53.2191,22.7722,96.6482,263.467,-2.4381e-05,-6.76e-06,0.0,0 STARLINK-4545,1 53421U 22097AK  23142.52965072 -.00000676  00000-0 -24381-4 0  9996,2 53421  53.2191  22.7722 0001405  96.6482 263.4670 15.08833663 44318,6917.9,95.438,540.737,538.793,0.0
53421.0,STARLINK-4545,PAYLOAD,2023-05-22 15:53:28,15.08835695,0.0001366,53.2188,22.1773,112.5048,247.6089,5.8556e-05,6.44e-06,0.0,0 STARLINK-4545,1 53421U 22097AK  23142.66213000  .00000644  00000-0  58556-4 0  9992,2 53421  53.2188  22.1773 0001366 112.5048 247.6089 15.08835695 44333,6917.894,95.438,540.704,538.814,0.0
53421.0,STARLINK-4545,PAYLOAD,2023-05-23 22:05:48,15.08846294,0.0001287,53.2176,16.5291,95.2687,264.8452,0.00053532,8.243e-05,0.0,0 STARLINK-4545,1 53421U 22097AK  23143.92069507  .00008243  00000-0  53532-3 0  9994,2 53421  53.2176  16.5291 0001287  95.2687 264.8452 15.08846294 44523,6917.861,95.437,540.616,538.836,0.0
53421.0,STARLINK-4545,PAYLOAD,2023-05-25 15:25:48,15.08845685,0.0001378,53.2172,8.7924,101.99,258.1247,0.0001023,1.341e-05,0.0,0 STARLINK-4545,1 53421U 22097AK  23145.64292657  .00001341  00000-0  10230-3 0  9999,2 53421  53.2172   8.7924 0001378 101.9900 258.1247 15.08845685 44328,6917.863,95.437,540.681,538.775,0.0
53421.0,STARLINK-4545,PAYLOAD,2023-05-25 20:11:58,15.08847878,0.000136,53.2172,7.9001,101.7963,258.3182,0.0001149,1.542e-05,0.0,0 STARLINK-4545,1 53421U 22097AK  23145.84164430  .00001542  00000-0  11490-3 0  9990,2 53421  53.2172   7.9001 0001360 101.7963 258.3182 15.08847878 44813,6917.856,95.437,540.662,538.78,0.0
53421.0,STARLINK-4545,PAYLOAD,2023-05-26 00:58:07,15.08845349,0.0001476,53.2182,7.01,104.731,255.3846,0.00016886,2.401e-05,0.0,0 STARLINK-4545,1 53421U 22097AK  23146.04036502  .00002401  00000-0  16886-3 0  9990,2 53421  53.2182   7.0100 0001476 104.7310 255.3846 15.08845349 44840,6917.864,95.437,540.75,538.708,0.0
53421.0,STARLINK-4545,PAYLOAD,2023-05-26 18:27:22,15.08841266,0.0001166,53.2168,3.74,99.8114,260.301,-5.1686e-05,-1.11e-05,0.0,0 STARLINK-4545,1 53421U 22097AK  23146.76900608 -.00001110  00000-0 -51686-4 0  9992,2 53421  53.2168   3.7400 0001166  99.8114 260.3010 15.08841266 44496,6917.877,95.437,540.548,538.935,0.0
53421.0,STARLINK-4545,PAYLOAD,2023-05-26 20:02:45,15.08838393,0.0001077,53.2168,3.4452,87.7227,272.3889,-0.000108,-2.006e-05,0.0,0 STARLINK-4545,1 53421U 22097AK  23146.83524726 -.00002006  00000-0 -10800-3 0  9990,2 53421  53.2168   3.4452 0001077  87.7227 272.3889 15.08838393 44968,6917.885,95.438,540.495,539.005,0.0
53421.0,STARLINK-4545,PAYLOAD,2023-05-27 19:53:32,15.0884168,0.0001029,53.2172,358.9832,96.5493,263.5617,7.1381e-05,8.48e-06,0.0,0 STARLINK-4545,1 53421U 22097AK  23147.82884976  .00000848  00000-0  71381-4 0  9998,2 53421  53.2172 358.9832 0001029  96.5493 263.5617 15.08841680 44653,6917.875,95.437,540.452,539.028,0.0
53421.0,STARLINK-4545,PAYLOAD,2023-05-27 21:28:55,15.08844049,0.000108,53.2178,358.6851,91.7992,268.3124,8.9717e-05,1.14e-05,0.0,0 STARLINK-4545,1 53421U 22097AK  23147.89508838  .00001140  00000-0  89717-4 0  9993,2 53421  53.2178 358.6851 0001080  91.7992 268.3124 15.08844049 45126,6917.868,95.437,540.48,538.986,0.0
53421.0,STARLINK-4545,PAYLOAD,2023-05-28 21:19:42,15.08848995,0.0001086,53.2168,354.2254,86.2649,273.8467,0.00024003,3.535e-05,0.0,0 STARLINK-4545,1 53421U 22097AK  23148.88868529  .00003535  00000-0  24003-3 0  9995,2 53421  53.2168 354.2254 0001086  86.2649 273.8467 15.08848995 45279,6917.853,95.437,540.469,538.967,0.0
53421.0,STARLINK-4545,PAYLOAD,2023-05-28 22:55:05,15.08852021,0.0001082,53.2168,353.9277,90.2081,269.9035,0.000285,4.252e-05,0.0,0 STARLINK-4545,1 53421U 22097AK  23148.95492359  .00004252  00000-0  28500-3 0  9990,2 53421  53.2168 353.9277 0001082  90.2081 269.9035 15.08852021 44823,6917.844,95.437,540.457,538.96,0.0
53421.0,STARLINK-4545,PAYLOAD,2023-05-29 16:24:20,15.08841627,0.0001084,53.2168,350.6578,91.3571,268.7545,5.4978e-05,5.87e-06,0.0,0 STARLINK-4545,1 53421U 22097AK  23149.68356967  .00000587  00000-0  54978-4 0  9991,2 53421  53.2168 350.6578 0001084  91.3571 268.7545 15.08841627 44934,6917.875,95.437,540.49,538.991,0.0
